ACS3                    
1 59588U 24077B   24225.13886359  .00000126  00000+0  18291-3 0  9995
2 59588  97.4024 280.3152 0018948 303.5332  56.4009 13.67696865 15055
